OBJECT_NAME,OBJECT_ID,EPOCH,MEAN_MOTION,ECCENTRICITY,INCLINATION,RA_OF_ASC_NODE,ARG_OF_PERICENTER,MEAN_ANOMALY,EPHEMERIS_TYPE,CLASSIFICATION_TYPE,NORAD_CAT_ID,ELEMENT_SET_NO,REV_AT_EPOCH,BSTAR,MEAN_MOTION_DOT,MEAN_MOTION_DDOT
ORBCOMM FM06,1997-084G,2026-07-08T09:28:27.183648,14.47616773,.0000986,45.0147,310.6151,210.1516,192.1856,0,U,25118,999,49746,.27712273E-3,.885E-5,0
ORBCOMM FM04,1998-007C,2026-07-09T08:11:42.924192,14.35778345,.00418668,107.9632,215.0175,286.8433,72.8118,0,U,25159,999,47977,.20868928E-3,.477E-5,0
ORBCOMM FM19,1998-046C,2026-07-09T05:38:46.675680,14.39534177,.0003522,44.9926,138.7541,25.1321,113.6537,0,U,25415,999,45995,.26174806E-3,.681E-5,0
ORBCOMM FM20,1998-046D,2026-07-09T05:50:19.244256,14.38093995,.00019149,44.9928,146.8827,328.5298,31.5435,0,U,25416,999,45996,.19088355E-3,.441E-5,0
ORBCOMM FM27,1998-053G,2026-07-09T02:57:46.989792,14.39178668,.00024285,45.0037,231.1611,270.1383,89.9187,0,U,25481,999,45339,.18513711E-3,.436E-5,0
ORBCOMM FM32,1999-065C,2026-07-08T08:29:01.779648,14.37161684,.00050345,45.0155,73.0491,157.9812,202.1253,0,U,25982,999,39013,.21018318E-3,.489E-5,0
ORBCOMM FM109,2014-040A,2026-07-07T10:32:05.843328,14.58867123,.00017707,47.0043,355.7372,299.6158,60.4551,0,U,40086,999,63730,.10363777E-3,.319E-5,0
ORBCOMM FM110,2015-081D,2026-07-09T05:23:25.413216,14.58913742,.00032971,47.0014,257.2427,196.7550,163.3228,0,U,41182,999,56084,.10693737E-3,.335E-5,0
ORBCOMM FM118,2015-081E,2026-07-08T12:08:07.130976,14.58900482,.0002551,47.0033,260.9782,153.0735,207.0284,0,U,41183,999,56084,.8089954E-4,.211E-5,0
ORBCOMM FM112,2015-081F,2026-07-09T06:18:52.377408,14.58932538,.00039977,46.9976,165.8528,303.9343,56.1162,0,U,41184,999,56217,.13947043E-3,.489E-5,0
ORBCOMM FM113,2015-081G,2026-07-09T07:24:54.576864,14.58878238,.00024815,46.9992,166.0233,300.1453,59.9187,0,U,41185,999,56216,.86114332E-4,.236E-5,0
ORBCOMM FM108,2015-081J,2026-07-09T03:13:06.419712,14.58904401,.00029274,47.0051,78.4302,300.2625,59.7971,0,U,41187,999,56328,.12629991E-3,.426E-5,0
ORBCOMM FM117,2015-081K,2026-07-08T01:44:24.310176,14.58889920,.00034342,47.0014,82.0783,302.2374,57.8178,0,U,41188,999,56317,.12375711E-3,.414E-5,0
ORBCOMM FM116,2015-081L,2026-07-08T17:42:03.513888,14.58901693,.00013301,47.0009,168.7225,212.2170,147.8635,0,U,41189,999,56208,.63411418E-4,.129E-5,0
